$$SOE
2460154.500000000, A.D. 2023-Jul-29 00:00:00.0000, 3.932322073692750E+09, -3.563907029768568E+09, 1.886304704999685E+07,
2460161.500000000, A.D. 2023-Aug-05 00:00:00.0000, 3.934310003769789E+09, -3.560868186646892E+09, 1.953765730708957E+07,
2460168.500000000, A.D. 2023-Aug-12 00:00:00.0000, 3.936296567412774E+09, -3.557828211896090E+09, 2.021226363928175E+07,
2460175.500000000, A.D. 2023-Aug-19 00:00:00.0000, 3.938281761579154E+09, -3.554787108593666E+09, 2.088686594434690E+07,
2460182.500000000, A.D. 2023-Aug-26 00:00:00.0000, 3.940265583532336E+09, -3.551744880217117E+09, 2.156146409580994E+07,
2460189.500000000, A.D. 2023-Sep-02 00:00:00.0000, 3.942248030819426E+09, -3.548701530625255E+09, 2.223605794436336E+07,
2460196.500000000, A.D. 2023-Sep-09 00:00:00.0000, 3.944229101262612E+09, -3.545657064152047E+09, 2.291064730792642E+07,
2460203.500000000, A.D. 2023-Sep-16 00:00:00.0000, 3.946208793132584E+09, -3.542611485871017E+09, 2.358523193021369E+07,
2460210.500000000, A.D. 2023-Sep-23 00:00:00.0000, 3.948187105920416E+09, -3.539564801743379E+09, 2.425981139311886E+07,
2460217.500000000, A.D. 2023-Sep-30 00:00:00.0000, 3.950164041368350E+09, -3.536517017459227E+09, 2.493438511147213E+07,
2460224.500000000, A.D. 2023-Oct-07 00:00:00.0000, 3.952139602405725E+09, -3.533468136514569E+09, 2.560895258183050E+07,
2460231.500000000, A.D. 2023-Oct-14 00:00:00.0000, 3.954113791029969E+09, -3.530418160837401E+09, 2.628351351931763E+07,
2460238.500000000, A.D. 2023-Oct-21 00:00:00.0000, 3.956086608361241E+09, -3.527367092360080E+09, 2.695806771755743E+07,
2460245.500000000, A.D. 2023-Oct-28 00:00:00.0000, 3.958058055446374E+09, -3.524314933277891E+09, 2.763261494726396E+07,
2460252.500000000, A.D. 2023-Nov-04 00:00:00.0000, 3.960028133562092E+09, -3.521261685764188E+09, 2.830715494545174E+07,
2460259.500000000, A.D. 2023-Nov-11 00:00:00.0000, 3.961996844195056E+09, -3.518207351741990E+09, 2.898168743021250E+07,
2460266.500000000, A.D. 2023-Nov-18 00:00:00.0000, 3.963964188918251E+09, -3.515151932776337E+09, 2.965621211592603E+07,
2460273.500000000, A.D. 2023-Nov-25 00:00:00.0000, 3.965930169236516E+09, -3.512095430064850E+09, 3.033072872429228E+07,
2460280.500000000, A.D. 2023-Dec-02 00:00:00.0000, 3.967894786429448E+09, -3.509037844537687E+09, 3.100523698786569E+07,
2460287.500000000, A.D. 2023-Dec-09 00:00:00.0000, 3.969858041469445E+09, -3.505979177125809E+09, 3.167973663424969E+07,
2460294.500000000, A.D. 2023-Dec-16 00:00:00.0000, 3.971819935302490E+09, -3.502919429184991E+09, 3.235422732563972E+07,
2460301.500000000, A.D. 2023-Dec-23 00:00:00.0000, 3.973780469840091E+09, -3.499858602388129E+09, 3.302870857789660E+07,
2460308.500000000, A.D. 2023-Dec-30 00:00:00.0000, 3.975739648322182E+09, -3.496796697036598E+09, 3.370317986770821E+07,
2460315.500000000, A.D. 2024-Jan-06 00:00:00.0000, 3.977697473278509E+09, -3.493733711151361E+09, 3.437764089731741E+07,
2460322.500000000, A.D. 2024-Jan-13 00:00:00.0000, 3.979653945261275E+09, -3.490669642150745E+09, 3.505209157791877E+07,
2460329.500000000, A.D. 2024-Jan-20 00:00:00.0000, 3.981609063572567E+09, -3.487604488030315E+09, 3.572653187131834E+07,
2460336.500000000, A.D. 2024-Jan-27 00:00:00.0000, 3.983562826957863E+09, -3.484538247392619E+09, 3.640096172899461E+07,
2460343.500000000, A.D. 2024-Feb-03 00:00:00.0000, 3.985515233837212E+09, -3.481470919275450E+09, 3.707538109008741E+07,
2460350.500000000, A.D. 2024-Feb-10 00:00:00.0000, 3.987466282351483E+09, -3.478402503069726E+09, 3.774978988887262E+07,
2460357.500000000, A.D. 2024-Feb-17 00:00:00.0000, 3.989415970362360E+09, -3.475332998519066E+09, 3.842418805947185E+07,
2460364.500000000, A.D. 2024-Feb-24 00:00:00.0000, 3.991364295442025E+09, -3.472262405786286E+09, 3.909857553556275E+07,
2460371.500000000, A.D. 2024-Mar-02 00:00:00.0000, 3.993311254881885E+09, -3.469190725619307E+09, 3.977295223963308E+07,
2460378.500000000, A.D. 2024-Mar-09 00:00:00.0000, 3.995256845859142E+09, -3.466117959679355E+09, 4.044731804382896E+07,
2460385.500000000, A.D. 2024-Mar-16 00:00:00.0000, 3.997201066156521E+09, -3.463044110834185E+09, 4.112167268220782E+07,
2460392.500000000, A.D. 2024-Mar-23 00:00:00.0000, 3.999143915331560E+09, -3.459969182307270E+09, 4.179601571448660E+07,
2460399.500000000, A.D. 2024-Mar-30 00:00:00.0000, 4.001085394094347E+09, -3.456893175709764E+09, 4.247034674464631E+07,
2460406.500000000, A.D. 2024-Apr-06 00:00:00.0000, 4.003025502149701E+09, -3.453816091322844E+09, 4.314466559569025E+07,
2460413.500000000, A.D. 2024-Apr-13 00:00:00.0000, 4.004964238054963E+09, -3.450737929794008E+09, 4.381897218319511E+07,
2460420.500000000, A.D. 2024-Apr-20 00:00:00.0000, 4.006901600141225E+09, -3.447658692570671E+09, 4.449326639374161E+07,
2460427.500000000, A.D. 2024-Apr-27 00:00:00.0000, 4.008837586980989E+09, -3.444578381632449E+09, 4.516754806152868E+07,
2460434.500000000, A.D. 2024-May-04 00:00:00.0000, 4.010772197490164E+09, -3.441496999225416E+09, 4.584181697768998E+07,
2460441.500000000, A.D. 2024-May-11 00:00:00.0000, 4.012705430902761E+09, -3.438414547699974E+09, 4.651607290223455E+07,
2460448.500000000, A.D. 2024-May-18 00:00:00.0000, 4.014637286700238E+09, -3.435331029430424E+09, 4.719031557299209E+07,
2460455.500000000, A.D. 2024-May-25 00:00:00.0000, 4.016567764520252E+09, -3.432246446823074E+09, 4.786454470890141E+07,
2460462.500000000, A.D. 2024-Jun-01 00:00:00.0000, 4.018496864104637E+09, -3.429160802469941E+09, 4.853875999766874E+07,
2460469.500000000, A.D. 2024-Jun-08 00:00:00.0000, 4.020424585532981E+09, -3.426074099470735E+09, 4.921296104357576E+07,
2460476.500000000, A.D. 2024-Jun-15 00:00:00.0000, 4.022350930141325E+09, -3.422986341377732E+09, 4.988714728359842E+07,
2460483.500000000, A.D. 2024-Jun-22 00:00:00.0000, 4.024275901120750E+09, -3.419897530588169E+09, 5.056131806034470E+07,
2460490.500000000, A.D. 2024-Jun-29 00:00:00.0000, 4.026199501674248E+09, -3.416807667004780E+09, 5.123547289787054E+07,
2460497.500000000, A.D. 2024-Jul-06 00:00:00.0000, 4.028121733376858E+09, -3.413716749435416E+09, 5.190961153604412E+07,
2460504.500000000, A.D. 2024-Jul-13 00:00:00.0000, 4.030042596688335E+09, -3.410624776907591E+09, 5.258373377561212E+07,
2460511.500000000, A.D. 2024-Jul-20 00:00:00.0000, 4.031962091632675E+09, -3.407531748749177E+09, 5.325783941007304E+07,
2460518.500000000, A.D. 2024-Jul-27 00:00:00.0000, 4.033880217988527E+09, -3.404437664394681E+09, 5.393192822611928E+07,
2460525.500000000, A.D. 2024-Aug-03 00:00:00.0000, 4.035796975263411E+09, -3.401342523291950E+09, 5.460600001690483E+07,
2460532.500000000, A.D. 2024-Aug-10 00:00:00.0000, 4.037712362617510E+09, -3.398246324913571E+09, 5.528005459243107E+07,
2460539.500000000, A.D. 2024-Aug-17 00:00:00.0000, 4.039626378784381E+09, -3.395149068850948E+09, 5.595409178429174E+07,
2460546.500000000, A.D. 2024-Aug-24 00:00:00.0000, 4.041539022016401E+09, -3.392050755012952E+09, 5.662811144015670E+07,
2460553.500000000, A.D. 2024-Aug-31 00:00:00.0000, 4.043450290170596E+09, -3.388951383990262E+09, 5.730211339212322E+07,
2460560.500000000, A.D. 2024-Sep-07 00:00:00.0000, 4.045360181300323E+09, -3.385850957458658E+09, 5.797609737546396E+07,
2460567.500000000, A.D. 2024-Sep-14 00:00:00.0000, 4.047268694838072E+09, -3.382749477625108E+09, 5.865006297109342E+07,
2460574.500000000, A.D. 2024-Sep-21 00:00:00.0000, 4.049175831340548E+09, -3.379646945303827E+09, 5.932400979134822E+07,
2460581.500000000, A.D. 2024-Sep-28 00:00:00.0000, 4.051081590308547E+09, -3.376543359849761E+09, 5.999793768982768E+07,
2460588.500000000, A.D. 2024-Oct-05 00:00:00.0000, 4.052985969751311E+09, -3.373438720947734E+09, 6.067184665872073E+07,
2460595.500000000, A.D. 2024-Oct-12 00:00:00.0000, 4.054888967134762E+09, -3.370333029276976E+09, 6.134573669011807E+07,
2460602.500000000, A.D. 2024-Oct-19 00:00:00.0000, 4.056790579962674E+09, -3.367226286321740E+09, 6.201960773973274E+07,
2460609.500000000, A.D. 2024-Oct-26 00:00:00.0000, 4.058690805958460E+09, -3.364118494129193E+09, 6.269345973049021E+07,
2460616.500000000, A.D. 2024-Nov-02 00:00:00.0000, 4.060589643104992E+09, -3.361009655162747E+09, 6.336729256025720E+07,
2460623.500000000, A.D. 2024-Nov-09 00:00:00.0000, 4.062487089639207E+09, -3.357899772229830E+09, 6.404110610657644E+07,
2460630.500000000, A.D. 2024-Nov-16 00:00:00.0000, 4.064383144027538E+09, -3.354788848483553E+09, 6.471490022610235E+07,
2460637.500000000, A.D. 2024-Nov-23 00:00:00.0000, 4.066277804969269E+09, -3.351676887547890E+09, 6.538867474040914E+07,
2460644.500000000, A.D. 2024-Nov-30 00:00:00.0000, 4.068171071636221E+09, -3.348563893808744E+09, 6.606242938567924E+07,
2460651.500000000, A.D. 2024-Dec-07 00:00:00.0000, 4.070062944568345E+09, -3.345449872450082E+09, 6.673616372226286E+07,
2460658.500000000, A.D. 2024-Dec-14 00:00:00.0000, 4.071953426536656E+09, -3.342334828010956E+09, 6.740987716742229E+07,
2460665.500000000, A.D. 2024-Dec-21 00:00:00.0000, 4.073842521055045E+09, -3.339218762704073E+09, 6.808356926267385E+07,
2460672.500000000, A.D. 2024-Dec-28 00:00:00.0000, 4.075730230513480E+09, -3.336101677463136E+09, 6.875723975249267E+07,
2460679.500000000, A.D. 2025-Jan-04 00:00:00.0000, 4.077616556529892E+09, -3.332983573342727E+09, 6.943088843053722E+07,
2460686.500000000, A.D. 2025-Jan-11 00:00:00.0000, 4.079501500699563E+09, -3.329864451610835E+09, 7.010451505633855E+07,
2460693.500000000, A.D. 2025-Jan-18 00:00:00.0000, 4.081385064825213E+09, -3.326744313452821E+09, 7.077811935170054E+07,
2460700.500000000, A.D. 2025-Jan-25 00:00:00.0000, 4.083267250871405E+09, -3.323623159761333E+09, 7.145170101597762E+07,
2460707.500000000, A.D. 2025-Feb-01 00:00:00.0000, 4.085148060832893E+09, -3.320500991042327E+09, 7.212525974064016E+07,
2460714.500000000, A.D. 2025-Feb-08 00:00:00.0000, 4.087027496575457E+09, -3.317377807417498E+09, 7.279879521962690E+07,
2460721.500000000, A.D. 2025-Feb-15 00:00:00.0000, 4.088905559678112E+09, -3.314253608743165E+09, 7.347230715140653E+07,
$$EOE